NORAD_CAT_ID,OBJECT_NAME,OBJECT_TYPE,EPOCH,MEAN_MOTION,ECCENTRICITY,INCLINATION,RA_OF_ASC_NODE,ARG_OF_PERICENTER,MEAN_ANOMALY,BSTAR,MEAN_MOTION_DOT,MEAN_MOTION_DDOT,TLE_LINE0,TLE_LINE1,TLE_LINE2,SEMIMAJOR_AXIS,PERIOD,APOGEE,PERIGEE,DECAYED
52485.0,STARLINK-3913,PAYLOAD,2022-09-06 14:00:01,15.08856901,0.0001474,53.2166,35.7361,62.8704,94.2745,-0.0040973,-0.00064939,0.0,0 STARLINK-3913,1 52485U 22049AL  22249.58334491 -.00064939  00000-0 -40973-2 0  9995,2 52485  53.2166  35.7361 0001474  62.8704  94.2745 15.08856901  1305,6917.829000000002,95.436,540.7130000000002,538.674,0.0
52485.0,STARLINK-3913,PAYLOAD,2022-09-06 22:00:00,15.08808852,0.0001494,53.2164,34.2404,54.6368,114.0982,0.002127,0.00033697,0.0,0 STARLINK-3913,1 52485U 22049AL  22249.91667824  .00033697  00000-0  21270-2 0  9995,2 52485  53.2164  34.2404 0001494  54.6368 114.0982 15.08808852 19341,6917.976,95.44,540.874,538.807,0.0
52485.0,STARLINK-3913,PAYLOAD,2022-09-07 14:00:01,15.08847065,0.0001428,53.2169,31.2469,60.6019,131.2842,-0.0011359999999999,-0.00018325,0.0,0 STARLINK-3913,1 52485U 22049AL  22250.58334491 -.00018325  00000-0 -11360-2 0  9993,2 52485  53.2169  31.2469 0001428  60.6019 131.2842 15.08847065 19447,6917.859,95.437,540.712,538.736,0.0
52485.0,STARLINK-3913,PAYLOAD,2022-09-07 22:00:00,15.08851528,0.0001514,53.2167,29.7509,55.2118,148.2713,-0.0003995,-6.642e-05,0.0,0 STARLINK-3913,1 52485U 22049AL  22250.91667824 -.00006642  00000-0 -39950-3 0  9994,2 52485  53.2167  29.7509 0001514  55.2118 148.2713 15.08851528  1308,6917.845,95.437,540.758,538.663,0.0
52485.0,STARLINK-3913,PAYLOAD,2022-09-08 06:00:00,15.08814389,0.0001412,53.2169,28.2528,64.4598,150.6429,0.0026288,0.00041768,0.0,0 STARLINK-3913,1 52485U 22049AL  22251.25001157  .00041768  00000-0  26288-2 0  9998,2 52485  53.2169  28.2528 0001412  64.4598 150.6429 15.08814389 19546,6917.959,95.439,540.8,538.847,0.0
52485.0,STARLINK-3913,PAYLOAD,2022-09-08 14:00:01,15.0884542,0.000152,53.2171,26.7577,62.0891,164.5888,-0.00099342,-0.00016066,0.0,0 STARLINK-3913,1 52485U 22049AL  22251.58334491 -.00016066  00000-0 -99342-3 0  9991,2 52485  53.2171  26.7577 0001520  62.0891 164.5888 15.08845420  1304,6917.864000000001,95.437,540.78,538.677,0.0
52485.0,STARLINK-3913,PAYLOAD,2022-09-08 22:00:00,15.08858704,0.0001581,53.2168,25.2616,57.9785,180.2958,-0.0010785999999999,-0.00017422,0.0,0 STARLINK-3913,1 52485U 22049AL  22251.91667824 -.00017422  00000-0 -10786-2 0  9998,2 52485  53.2168  25.2616 0001581  57.9785 180.2958 15.08858704 19659,6917.823,95.436,540.7819999999998,538.595,0.0
52485.0,STARLINK-3913,PAYLOAD,2022-09-09 14:00:01,15.08851566,0.0001593,53.217,22.2687,63.4656,198.0108,-0.0012277,-0.0001978,0.0,0 STARLINK-3913,1 52485U 22049AL  22252.58334491 -.00019780  00000-0 -12277-2 0  9999,2 52485  53.2170  22.2687 0001593  63.4656 198.0108 15.08851566  1305,6917.845,95.437,540.812,538.6080000000002,0.0
52485.0,STARLINK-3913,PAYLOAD,2022-09-09 22:00:00,15.08847833,0.000155,53.2166,20.7725,57.9396,215.1359,-0.0019405999999999,-0.00031047,0.0,0 STARLINK-3913,1 52485U 22049AL  22252.91667824 -.00031047  00000-0 -19406-2 0  9996,2 52485  53.2166  20.7725 0001550  57.9396 215.1359 15.08847833  1309,6917.856,95.437,540.794,538.649,0.0
52485.0,STARLINK-3913,PAYLOAD,2022-09-10 06:00:02,15.08812291,0.0001416999999999,53.2167,19.2745,65.4949,219.2491,0.0036025999999999,0.00057471,0.0,0 STARLINK-3913,1 52485U 22049AL  22253.25002315  .00057471  00000-0  36026-2 0  9996,2 52485  53.2167  19.2745 0001417  65.4949 219.2491 15.08812291 19856,6917.965,95.439,540.81,538.85,0.0
52485.0,STARLINK-3913,PAYLOAD,2022-09-10 14:00:01,15.08850527,0.0001501,53.2168,17.7798,61.0368,235.2244,-0.0010609999999999,-0.00017139,0.0,0 STARLINK-3913,1 52485U 22049AL  22253.58334491 -.00017139  00000-0 -10610-2 0  9995,2 52485  53.2168  17.7798 0001501  61.0368 235.2244 15.08850527  1308,6917.848000000001,95.437,540.752,538.675,0.0
52485.0,STARLINK-3913,PAYLOAD,2022-09-10 22:00:00,15.0886994,0.0001478,53.2165,16.2834,55.3988,252.4662,-0.0043361,-0.00068695,0.0,0 STARLINK-3913,1 52485U 22049AL  22253.91667824 -.00068695  00000-0 -43361-2 0  9993,2 52485  53.2165  16.2834 0001478  55.3988 252.4662 15.08869940 19951,6917.7890000000025,95.436,540.6759999999998,538.631,0.0
52485.0,STARLINK-3913,PAYLOAD,2022-09-11 14:00:01,15.08829267,0.0001582,53.2167,13.2909,59.39,271.6463,-0.00017025,-2.996e-05,0.0,0 STARLINK-3913,1 52485U 22049AL  22254.58334491 -.00002996  00000-0 -17025-3 0  9999,2 52485  53.2167  13.2909 0001582  59.3900 271.6463 15.08829267  1307,6917.913000000001,95.438,540.873,538.684,0.0
52485.0,STARLINK-3913,PAYLOAD,2022-09-11 22:00:00,15.0885924,0.0001597,53.2166,11.7945,55.4714,287.1386,-0.0025962,-0.00041391,0.0,0 STARLINK-3913,1 52485U 22049AL  22254.91667824 -.00041391  00000-0 -25962-2 0  9995,2 52485  53.2166  11.7945 0001597  55.4714 287.1386 15.08859240  1305,6917.821999999999,95.436,540.7909999999998,538.582,0.0
52485.0,STARLINK-3913,PAYLOAD,2022-09-12 12:00:00,15.08847327,0.0001689,53.2169,9.1757,60.9891,211.9093,-0.00045183,-7.473e-05,0.0,0 STARLINK-3913,1 52485U 22049AL  22255.50001157 -.00007473  00000-0 -45183-3 0  9993,2 52485  53.2169   9.1757 0001689  60.9891 211.9093 15.08847327 20190,6917.858,95.437,540.891,538.555,0.0
52485.0,STARLINK-3913,PAYLOAD,2022-09-12 14:00:01,15.08845721,0.0001739,53.2169,8.8021,58.9117,306.8868,-4.8869e-05,-1.066e-05,0.0,0 STARLINK-3913,1 52485U 22049AL  22255.58334491 -.00001066  00000-0 -48869-4 0  9998,2 52485  53.2169   8.8021 0001739  58.9117 306.8868 15.08845721  1306,6917.863,95.437,540.931,538.525,0.0
52485.0,STARLINK-3913,PAYLOAD,2022-09-12 22:00:00,15.08871731,0.0001669,53.2169,7.3054,55.0288,322.3672,-0.0032802,-0.0005216,0.0,0 STARLINK-3913,1 52485U 22049AL  22255.91667824 -.00052160  00000-0 -32802-2 0  9993,2 52485  53.2169   7.3054 0001669  55.0288 322.3672 15.08871731  1301,6917.783,95.436,540.803,538.494,0.0
52485.0,STARLINK-3913,PAYLOAD,2022-09-13 14:00:01,15.08841769,0.0001799,53.2172,4.3131,56.0325,344.5804,-0.00070206,-0.00011445,0.0,0 STARLINK-3913,1 52485U 22049AL  22256.58334491 -.00011445  00000-0 -70206-3 0  9990,2 52485  53.2172   4.3131 0001799  56.0325 344.5804 15.08841769  1306,6917.875,95.437,540.985,538.495,0.0
52485.0,STARLINK-3913,PAYLOAD,2022-09-13 16:00:00,15.08835792,0.0001829,53.2173,3.9393,54.4029,79.11,-3.9527e-05,-9.17e-06,0.0,0 STARLINK-3913,1 52485U 22049AL  22256.66667824 -.00000917  00000-0 -39527-4 0  9992,2 52485  53.2173   3.9393 0001829  54.4029  79.1100 15.08835792 20365,6917.893,95.438,541.024,538.493,0.0
52485.0,STARLINK-3913,PAYLOAD,2022-09-13 22:00:00,15.0884148,0.0001709,53.2172,2.8163,53.5627,358.62800000000016,-0.0026779,-0.00042657,0.0,0 STARLINK-3913,1 52485U 22049AL  22256.91667824 -.00042657  00000-0 -26779-2 0  9990,2 52485  53.2172   2.8163 0001709  53.5627 358.6280 15.08841480  1306,6917.876,95.437,540.923,538.559,0.0
52485.0,STARLINK-3913,PAYLOAD,2022-09-14 14:00:01,15.08830958,0.0001645,53.2176,359.8225,52.3708,22.9787,0.00039214,5.957e-05,0.0,0 STARLINK-3913,1 52485U 22049AL  22257.58334491  .00005957  00000-0  39214-3 0  9994,2 52485  53.2176 359.8225 0001645  52.3708  22.9787 15.08830958  1301,6917.908,95.438,540.911,538.635,0.0
52485.0,STARLINK-3913,PAYLOAD,2022-09-14 22:00:00,15.08848736,0.0001601,53.2174,358.3272,50.7095,36.2384,-0.0027076,-0.00043132,0.0,0 STARLINK-3913,1 52485U 22049AL  22257.91667824 -.00043132  00000-0 -27076-2 0  9991,2 52485  53.2174 358.3272 0001601  50.7095  36.2384 15.08848736 20550,6917.854,95.437,540.826,538.611,0.0
52485.0,STARLINK-3913,PAYLOAD,2022-09-15 14:00:01,15.08848868,0.0001641999999999,53.2175,355.3352,51.0155,59.114,6.0988e-06,-1.91e-06,0.0,0 STARLINK-3913,1 52485U 22049AL  22258.58334491 -.00000191  00000-0  60988-5 0  9995,2 52485  53.2175 355.3352 0001642  51.0155  59.1140 15.08848868  1305,6917.853,95.437,540.854,538.582,0.0
52485.0,STARLINK-3913,PAYLOAD,2022-09-15 16:00:00,15.08839639,0.0001673,53.2176,354.9613,49.3249,153.709,0.001333,0.0002099,0.0,0 STARLINK-3913,1 52485U 22049AL  22258.66667824  .00020990  00000-0  13330-2 0  9997,2 52485  53.2176 354.9613 0001673  49.3249 153.7090 15.08839639  1300,6917.880999999999,95.438,540.904,538.589,0.0
52485.0,STARLINK-3913,PAYLOAD,2022-09-15 23:03:10,15.08846498,0.0001438,53.2188,353.6398,66.8474,293.2669,5.1594e-05,5.33e-06,0.0,0 STARLINK-3913,1 52485U 22049AL  22258.96053589  .00000533  00000-0  51594-4 0  9994,2 52485  53.2188 353.6398 0001438  66.8474 293.2669 15.08846498 20711,6917.861,95.437,540.72,538.731,0.0
52485.0,STARLINK-3913,PAYLOAD,2022-09-16 13:21:39,15.08835956,0.0001610999999999,53.2192,350.9657,66.1003,294.0158,0.00012671,1.729e-05,0.0,0 STARLINK-3913,1 52485U 22049AL  22259.55670500  .00001729  00000-0  12671-3 0  9998,2 52485  53.2192 350.9657 0001611  66.1003 294.0158 15.08835956 20649,6917.893,95.438,540.872,538.643,0.0
52485.0,STARLINK-3913,PAYLOAD,2022-09-16 14:57:02,15.08836556,0.0001621,53.2192,350.6682,65.3032,294.8129,0.00013045,1.789e-05,0.0,0 STARLINK-3913,1 52485U 22049AL  22259.62294497  .00001789  00000-0  13045-3 0  9995,2 52485  53.2192 350.6682 0001621  65.3032 294.8129 15.08836556 20652,6917.891,95.438,540.877,538.635,0.0
52485.0,STARLINK-3913,PAYLOAD,2022-09-17 05:15:29,15.08847964,0.0001573,53.2184,347.9906,58.9081,301.2066,0.0001841999999999,2.645e-05,0.0,0 STARLINK-3913,1 52485U 22049AL  22260.21909571  .00002645  00000-0  18420-3 0  9992,2 52485  53.2184 347.9906 0001573  58.9081 301.2066 15.08847964 20905,6917.856,95.437,540.809,538.633,0.0
52485.0,STARLINK-3913,PAYLOAD,2022-09-17 11:37:02,15.08847121,0.0001554999999999,53.2174,346.8008,55.0397,305.0741,0.00014621,2.04e-05,0.0,0 STARLINK-3913,1 52485U 22049AL  22260.48405615  .00002040  00000-0  14621-3 0  9999,2 52485  53.2174 346.8008 0001555  55.0397 305.0741 15.08847121 20786,6917.859,95.437,540.799,538.648,0.0
